{
  "type": "FeatureCollection",
  "features": [
    {
      "type": "Feature",
      "properties": {
        "norad_id": 34079,
        "name": "IRIDIUM 33 DEB",
        "group": "iridium-33-debris",
        "lat": -32.79047206292371,
        "lon": -172.8302359374113,
        "alt_km": 625.764794182287,
        "timestamp": "2025-12-21T03:56:51.218070+00:00",
        "meta_object_name": "IRIDIUM 33 DEB",
        "meta_object_id": "1997-051CN",
        "meta_epoch": "2025-12-20T07:37:00.373152",
        "meta_mean_motion": 14.83707217,
        "meta_eccentricity": 0.00047155,
        "meta_inclination": 86.3768,
        "meta_ra_of_asc_node": 5.2156,
        "meta_arg_of_pericenter": 341.2972,
        "meta_mean_anomaly": 29.7285,
        "meta_ephemeris_type": 0,
        "meta_classification_type": "U",
        "meta_norad_cat_id": 34079,
        "meta_element_set_no": 999,
        "meta_rev_at_epoch": 89090,
        "meta_bstar": 0.0011458545,
        "meta_mean_motion_dot": 9.499e-05,
        "meta_mean_motion_ddot": 0,
        "tle_line1": "1 34079U 97051CN  25354.31736543  .00009499  00000+0  11459-2 0  9998",
        "tle_line2": "2 34079  86.3768   5.2156 0004715 341.2972  29.7285 14.83707217890906"
      },
      "geometry": {
        "type": "Point",
        "coordinates": [
          -172.8302359374113,
          -32.79047206292371
        ]
      }
    },
    {
      "type": "Feature",
      "properties": {
        "norad_id": 34088,
        "name": "IRIDIUM 33 DEB",
        "group": "iridium-33-debris",
        "lat": -4.732360665045127,
        "lon": -152.84781970985966,
        "alt_km": 592.6037245036496,
        "timestamp": "2025-12-21T03:56:51.218079+00:00",
        "meta_object_name": "IRIDIUM 33 DEB",
        "meta_object_id": "1997-051CX",
        "meta_epoch": "2025-12-20T01:29:37.281120",
        "meta_mean_motion": 14.9169164,
        "meta_eccentricity": 0.0006466,
        "meta_inclination": 86.3842,
        "meta_ra_of_asc_node": 27.3589,
        "meta_arg_of_pericenter": 153.3403,
        "meta_mean_anomaly": 235.9617,
        "meta_ephemeris_type": 0,
        "meta_classification_type": "U",
        "meta_norad_cat_id": 34088,
        "meta_element_set_no": 999,
        "meta_rev_at_epoch": 88851,
        "meta_bstar": 0.0014202951,
        "meta_mean_motion_dot": 0.00014326,
        "meta_mean_motion_ddot": 0,
        "tle_line1": "1 34088U 97051CX  25354.06223705  .00014326  00000+0  14203-2 0  9996",
        "tle_line2": "2 34088  86.3842  27.3589 0006466 153.3403 235.9617 14.91691640888515"
      },
      "geometry": {
        "type": "Point",
        "coordinates": [
          -152.84781970985966,
          -4.732360665045127
        ]
      }
    },
    {
      "type": "Feature",
      "properties": {
        "norad_id": 34091,
        "name": "IRIDIUM 33 DEB",
        "group": "iridium-33-debris",
        "lat": 83.11493181049642,
        "lon": 94.96984680918982,
        "alt_km": 638.2537398039576,
        "timestamp": "2025-12-21T03:56:51.218088+00:00",
        "meta_object_name": "IRIDIUM 33 DEB",
        "meta_object_id": "1997-051DA",
        "meta_epoch": "2025-12-20T11:21:59.020992",
        "meta_mean_motion": 14.82341401,
        "meta_eccentricity": 0.00340405,
        "meta_inclination": 86.3417,
        "meta_ra_of_asc_node": 63.2908,
        "meta_arg_of_pericenter": 265.3506,
        "meta_mean_anomaly": 94.3828,
        "meta_ephemeris_type": 0,
        "meta_classification_type": "U",
        "meta_norad_cat_id": 34091,
        "meta_element_set_no": 999,
        "meta_rev_at_epoch": 87981,
        "meta_bstar": 0.0030472538,
        "meta_mean_motion_dot": 0.00024698,
        "meta_mean_motion_ddot": 0,
        "tle_line1": "1 34091U 97051DA  25354.47359978  .00024698  00000+0  30473-2 0  9997",
        "tle_line2": "2 34091  86.3417  63.2908 0034040 265.3506  94.3828 14.82341401879819"
      },
      "geometry": {
        "type": "Point",
        "coordinates": [
          94.96984680918982,
          83.11493181049642
        ]
      }
    },
    {
      "type": "Feature",
      "properties": {
        "norad_id": 34097,
        "name": "IRIDIUM 33 DEB",
        "group": "iridium-33-debris",
        "lat": -20.640847474355475,
        "lon": -3.7453751881605952,
        "alt_km": 722.6332566696565,
        "timestamp": "2025-12-21T03:56:51.218098+00:00",
        "meta_object_name": "IRIDIUM 33 DEB",
        "meta_object_id": "1997-051DG",
        "meta_epoch": "2025-12-20T11:18:18.737280",
        "meta_mean_motion": 14.34833925,
        "meta_eccentricity": 0.00817307,
        "meta_inclination": 86.2,
        "meta_ra_of_asc_node": 357.9952,
        "meta_arg_of_pericenter": 336.8917,
        "meta_mean_anomaly": 22.861,
        "meta_ephemeris_type": 0,
        "meta_classification_type": "U",
        "meta_norad_cat_id": 34097,
        "meta_element_set_no": 999,
        "meta_rev_at_epoch": 87230,
        "meta_bstar": 0.0010165837,
        "meta_mean_motion_dot": 3.014e-05,
        "meta_mean_motion_ddot": 0,
        "tle_line1": "1 34097U 97051DG  25354.47105020  .00003014  00000+0  10166-2 0  9996",
        "tle_line2": "2 34097  86.2000 357.9952 0081730 336.8917  22.8610 14.34833925872308"
      },
      "geometry": {
        "type": "Point",
        "coordinates": [
          -3.7453751881605952,
          -20.640847474355475
        ]
      }
    },
    {
      "type": "Feature",
      "properties": {
        "norad_id": 34145,
        "name": "IRIDIUM 33 DEB",
        "group": "iridium-33-debris",
        "lat": 63.22917229078929,
        "lon": 141.2267943129766,
        "alt_km": 718.7528652544233,
        "timestamp": "2025-12-21T03:56:51.218107+00:00",
        "meta_object_name": "IRIDIUM 33 DEB",
        "meta_object_id": "1997-051DY",
        "meta_epoch": "2025-12-20T09:05:57.135264",
        "meta_mean_motion": 14.42338365,
        "meta_eccentricity": 0.00557355,
        "meta_inclination": 86.2115,
        "meta_ra_of_asc_node": 329.1236,
        "meta_arg_of_pericenter": 69.5659,
        "meta_mean_anomaly": 291.1513,
        "meta_ephemeris_type": 0,
        "meta_classification_type": "U",
        "meta_norad_cat_id": 34145,
        "meta_element_set_no": 999,
        "meta_rev_at_epoch": 87748,
        "meta_bstar": 0.00077021697,
        "meta_mean_motion_dot": 2.611e-05,
        "meta_mean_motion_ddot": 0,
        "tle_line1": "1 34145U 97051DY  25354.37913351  .00002611  00000+0  77022-3 0  9990",
        "tle_line2": "2 34145  86.2115 329.1236 0055735  69.5659 291.1513 14.42338365877488"
      },
      "geometry": {
        "type": "Point",
        "coordinates": [
          141.2267943129766,
          63.22917229078929
        ]
      }
    },
    {
      "type": "Feature",
      "properties": {
        "norad_id": 34146,
        "name": "IRIDIUM 33 DEB",
        "group": "iridium-33-debris",
        "lat": -41.44555509638682,
        "lon": -17.212439174409205,
        "alt_km": 746.2446163680479,
        "timestamp": "2025-12-21T03:56:51.218117+00:00",
        "meta_object_name": "IRIDIUM 33 DEB",
        "meta_object_id": "1997-051DZ",
        "meta_epoch": "2025-12-20T10:36:37.304352",
        "meta_mean_motion": 14.49095208,
        "meta_eccentricity": 0.00262607,
        "meta_inclination": 86.283,
        "meta_ra_of_asc_node": 346.3974,
        "meta_arg_of_pericenter": 194.7947,
        "meta_mean_anomaly": 317.4256,
        "meta_ephemeris_type": 0,
        "meta_classification_type": "U",
        "meta_norad_cat_id": 34146,
        "meta_element_set_no": 999,
        "meta_rev_at_epoch": 88218,
        "meta_bstar": 0.00059944717,
        "meta_mean_motion_dot": 2.307e-05,
        "meta_mean_motion_ddot": 0,
        "tle_line1": "1 34146U 97051DZ  25354.44209843  .00002307  00000+0  59945-3 0  9999",
        "tle_line2": "2 34146  86.2830 346.3974 0026260 194.7947 317.4256 14.49095208882187"
      },
      "geometry": {
        "type": "Point",
        "coordinates": [
          -17.212439174409205,
          -41.44555509638682
        ]
      }
    },
    {
      "type": "Feature",
      "properties": {
        "norad_id": 34159,
        "name": "IRIDIUM 33 DEB",
        "group": "iridium-33-debris",
        "lat": 72.55541599868448,
        "lon": 56.36972903263572,
        "alt_km": 775.0599269846416,
        "timestamp": "2025-12-21T03:56:51.218126+00:00",
        "meta_object_name": "IRIDIUM 33 DEB",
        "meta_object_id": "1997-051EN",
        "meta_epoch": "2025-12-20T15:55:20.560224",
        "meta_mean_motion": 14.38511056,
        "meta_eccentricity": 0.002604,
        "meta_inclination": 86.3499,
        "meta_ra_of_asc_node": 44.8627,
        "meta_arg_of_pericenter": 259.811,
        "meta_mean_anomaly": 100.0151,
        "meta_ephemeris_type": 0,
        "meta_classification_type": "U",
        "meta_norad_cat_id": 34159,
        "meta_element_set_no": 999,
        "meta_rev_at_epoch": 88073,
        "meta_bstar": 0.00025987,
        "meta_mean_motion_dot": 8.16e-06,
        "meta_mean_motion_ddot": 0,
        "tle_line1": "1 34159U 97051EN  25354.66343241  .00000816  00000+0  25987-3 0  9990",
        "tle_line2": "2 34159  86.3499  44.8627 0026040 259.8110 100.0151 14.38511056880730"
      },
      "geometry": {
        "type": "Point",
        "coordinates": [
          56.36972903263572,
          72.55541599868448
        ]
      }
    }
  ]
}